STARLINK-31426          
1 59249U 24049U   26068.36227425 -.00005052  00000+0 -17414-3 0  9994
2 59249  43.0019 145.5804 0001029 287.9393  72.1347 15.27588405112348
COSMOS 2588             
1 64095U 25109A   26068.81179522  .00009169  00000+0  32611-3 0  9998
2 64095  72.9704  73.5401 0005019 308.6780  51.3966 15.29122656 44425
